BANDWAGON-4 OBJECT P    
1 66306U 25248P   26067.98083108  .00022647  00000+0  92291-3 0  9996
2 66306  45.4037 295.4322 0012078 209.3167 150.7044 15.24098352 19290
STARLINK-35218          
1 66340U 25253X   26068.44467991  .00025579  00000+0  93548-3 0  9991
2 66340  43.0018 214.1773 0001283 267.9968  92.0736 15.27591897 20208
