[{"OBJECT_NAME":"BANDWAGON-4 OBJECT P","OBJECT_ID":"2025-248P","EPOCH":"2026-03-08T23:32:23.805312","MEAN_MOTION":15.24098352,"ECCENTRICITY":0.00120788,"INCLINATION":45.4037,"RA_OF_ASC_NODE":295.4322,"ARG_OF_PERICENTER":209.3167,"MEAN_ANOMALY":150.7044,"EPHEMERIS_TYPE":0,"CLASSIFICATION_TYPE":"U","NORAD_CAT_ID":66306,"ELEMENT_SET_NO":999,"REV_AT_EPOCH":1929,"BSTAR":0.00092291021,"MEAN_MOTION_DOT":0.00022647,"MEAN_MOTION_DDOT":0},{"OBJECT_NAME":"STARLINK-35218","OBJECT_ID":"2025-253X","EPOCH":"2026-03-09T10:40:20.344224","MEAN_MOTION":15.27591897,"ECCENTRICITY":0.00012834,"INCLINATION":43.0018,"RA_OF_ASC_NODE":214.1773,"ARG_OF_PERICENTER":267.9968,"MEAN_ANOMALY":92.0736,"EPHEMERIS_TYPE":0,"CLASSIFICATION_TYPE":"U","NORAD_CAT_ID":66340,"ELEMENT_SET_NO":999,"REV_AT_EPOCH":2020,"BSTAR":0.0009354775,"MEAN_MOTION_DOT":0.00025579,"MEAN_MOTION_DDOT":0}]
